SAKHACUBE-CHOLBON (RS1*)
1 67290U 25313AU  26019.90879535  .00013136  00000+0  58476-3 0  9998
2 67290  97.4103  97.0278 0010587 151.5256 208.6560 15.21541829  3401
QMR-KWT-2 (RS95S)       
1 67291U 25313AV  26019.90812417  .00017818  00000+0  78952-3 0  9997
2 67291  97.4103  97.0288 0010465 151.6583 208.5224 15.21632007  3407
SITRO-AIS-64            
1 67292U 25313AW  26019.90742605  .00013113  00000+0  58217-3 0  9995
2 67292  97.4107  97.0312 0010268 151.3213 208.8590 15.21638266  3400
SCORPION (RS89S)        
1 67293U 25313AX  26019.90937302  .00005710  00000+0  25730-3 0  9994
2 67293  97.4103  97.0248 0012217 142.6488 217.5600 15.21371879  3401
SITRO-AIS-63            
1 67294U 25313AY  26019.90680620  .00012739  00000+0  56500-3 0  9991
2 67294  97.4110  97.0325 0010163 151.4835 208.6959 15.21678916  3408
ZORKIY-2M-5             
1 67295U 25313AZ  26019.90696256  .00011464  00000+0  50925-3 0  9993
2 67295  97.4102  97.0280 0011687 142.5769 217.6283 15.21636587  3407
SITRO-AIS-62            
1 67296U 25313BA  26019.90608462  .00013790  00000+0  61040-3 0  9990
2 67296  97.4114  97.0348 0009941 151.9555 208.2219 15.21730483  3408
SITRO-AIS-61            
1 67297U 25313BB  26019.90522942  .00013711  00000+0  60590-3 0  9991
2 67297  97.4116  97.0359 0009614 153.8475 206.3248 15.21791916  3401
TIANHUI 7               
1 67300U 25314A   26018.70091390  .00006075  00000+0  24251-3 0  9991
2 67300  97.4190  95.7558 0001660 100.2153 259.9272 15.25523919  2990
CZ-4B R/B               
1 67301U 25314B   26019.76508750  .00102873  52910-5  48855-3 0  9994
2 67301  97.3728  98.0312 0136053 301.0982  57.6988 15.70390543  3192
SHIJIAN-29A (SJ-29A)    
1 67302U 25315A   26019.95205715 -.00000054  00000+0  00000+0 0  9994
2 67302   3.0216  99.0516 0001507 303.5200 132.5299  1.00271312   130
CZ-7A R/B               
1 67303U 25315B   26019.53162379  .00095174  93927-6  27019-2 0  9992
2 67303  19.5776  92.3370 7187182 194.0157 123.3195  2.44437975   482
