CCSDS_OMM_VERS = 2.0
CREATION_DATE  = 
ORIGINATOR     = 

OBJECT_NAME    = SAKHACUBE-CHOLBON (RS18S)
OBJECT_ID      = 2025-313AU
CENTER_NAME    = EARTH
REF_FRAME      = TEME
TIME_SYSTEM    = UTC
MEAN_ELEMENT_THEORY = SGP/SGP4

EPOCH          = 2026-01-19T21:48:39.918240
MEAN_MOTION    = 15.21541829
ECCENTRICITY   = .00105874
INCLINATION    = 97.4103
RA_OF_ASC_NODE = 97.0278
ARG_OF_PERICENTER = 151.5256
MEAN_ANOMALY   = 208.6560

EPHEMERIS_TYPE = 0
CLASSIFICATION_TYPE = U
NORAD_CAT_ID   = 67290
ELEMENT_SET_NO = 999
REV_AT_EPOCH   = 340
BSTAR          = .5847616E-3
MEAN_MOTION_DOT = .13136E-3
MEAN_MOTION_DDOT = 0

CCSDS_OMM_VERS = 2.0
CREATION_DATE  = 
ORIGINATOR     = 

OBJECT_NAME    = QMR-KWT-2 (RS95S)
OBJECT_ID      = 2025-313AV
CENTER_NAME    = EARTH
REF_FRAME      = TEME
TIME_SYSTEM    = UTC
MEAN_ELEMENT_THEORY = SGP/SGP4

EPOCH          = 2026-01-19T21:47:41.928288
MEAN_MOTION    = 15.21632007
ECCENTRICITY   = .00104652
INCLINATION    = 97.4103
RA_OF_ASC_NODE = 97.0288
ARG_OF_PERICENTER = 151.6583
MEAN_ANOMALY   = 208.5224

EPHEMERIS_TYPE = 0
CLASSIFICATION_TYPE = U
NORAD_CAT_ID   = 67291
ELEMENT_SET_NO = 999
REV_AT_EPOCH   = 340
BSTAR          = .78951708E-3
MEAN_MOTION_DOT = .17818E-3
MEAN_MOTION_DDOT = 0

CCSDS_OMM_VERS = 2.0
CREATION_DATE  = 
ORIGINATOR     = 

OBJECT_NAME    = SITRO-AIS-64
OBJECT_ID      = 2025-313AW
CENTER_NAME    = EARTH
REF_FRAME      = TEME
TIME_SYSTEM    = UTC
MEAN_ELEMENT_THEORY = SGP/SGP4

EPOCH          = 2026-01-19T21:46:41.610720
MEAN_MOTION    = 15.21638266
ECCENTRICITY   = .00102689
INCLINATION    = 97.4107
RA_OF_ASC_NODE = 97.0312
ARG_OF_PERICENTER = 151.3213
MEAN_ANOMALY   = 208.8590

EPHEMERIS_TYPE = 0
CLASSIFICATION_TYPE = U
NORAD_CAT_ID   = 67292
ELEMENT_SET_NO = 999
REV_AT_EPOCH   = 340
BSTAR          = .58216763E-3
MEAN_MOTION_DOT = .13113E-3
MEAN_MOTION_DDOT = 0

CCSDS_OMM_VERS = 2.0
CREATION_DATE  = 
ORIGINATOR     = 

OBJECT_NAME    = SCORPION (RS89S)
OBJECT_ID      = 2025-313AX
CENTER_NAME    = EARTH
REF_FRAME      = TEME
TIME_SYSTEM    = UTC
MEAN_ELEMENT_THEORY = SGP/SGP4

EPOCH          = 2026-01-19T21:49:29.828928
MEAN_MOTION    = 15.21371879
ECCENTRICITY   = .00122174
INCLINATION    = 97.4103
RA_OF_ASC_NODE = 97.0248
ARG_OF_PERICENTER = 142.6488
MEAN_ANOMALY   = 217.5600

EPHEMERIS_TYPE = 0
CLASSIFICATION_TYPE = U
NORAD_CAT_ID   = 67293
ELEMENT_SET_NO = 999
REV_AT_EPOCH   = 340
BSTAR          = .2572966E-3
MEAN_MOTION_DOT = .571E-4
MEAN_MOTION_DDOT = 0

CCSDS_OMM_VERS = 2.0
CREATION_DATE  = 
ORIGINATOR     = 

OBJECT_NAME    = SITRO-AIS-63
OBJECT_ID      = 2025-313AY
CENTER_NAME    = EARTH
REF_FRAME      = TEME
TIME_SYSTEM    = UTC
MEAN_ELEMENT_THEORY = SGP/SGP4

EPOCH          = 2026-01-19T21:45:48.055680
MEAN_MOTION    = 15.21678916
ECCENTRICITY   = .00101634
INCLINATION    = 97.4110
RA_OF_ASC_NODE = 97.0325
ARG_OF_PERICENTER = 151.4835
MEAN_ANOMALY   = 208.6959

EPHEMERIS_TYPE = 0
CLASSIFICATION_TYPE = U
NORAD_CAT_ID   = 67294
ELEMENT_SET_NO = 999
REV_AT_EPOCH   = 340
BSTAR          = .56499953E-3
MEAN_MOTION_DOT = .12739E-3
MEAN_MOTION_DDOT = 0

CCSDS_OMM_VERS = 2.0
CREATION_DATE  = 
ORIGINATOR     = 

OBJECT_NAME    = ZORKIY-2M-5
OBJECT_ID      = 2025-313AZ
CENTER_NAME    = EARTH
REF_FRAME      = TEME
TIME_SYSTEM    = UTC
MEAN_ELEMENT_THEORY = SGP/SGP4

EPOCH          = 2026-01-19T21:46:01.565184
MEAN_MOTION    = 15.21636587
ECCENTRICITY   = .00116876
INCLINATION    = 97.4102
RA_OF_ASC_NODE = 97.0280
ARG_OF_PERICENTER = 142.5769
MEAN_ANOMALY   = 217.6283

EPHEMERIS_TYPE = 0
CLASSIFICATION_TYPE = U
NORAD_CAT_ID   = 67295
ELEMENT_SET_NO = 999
REV_AT_EPOCH   = 340
BSTAR          = .50925175E-3
MEAN_MOTION_DOT = .11464E-3
MEAN_MOTION_DDOT = 0

CCSDS_OMM_VERS = 2.0
CREATION_DATE  = 
ORIGINATOR     = 

OBJECT_NAME    = SITRO-AIS-62
OBJECT_ID      = 2025-313BA
CENTER_NAME    = EARTH
REF_FRAME      = TEME
TIME_SYSTEM    = UTC
MEAN_ELEMENT_THEORY = SGP/SGP4

EPOCH          = 2026-01-19T21:44:45.711168
MEAN_MOTION    = 15.21730483
ECCENTRICITY   = .00099418
INCLINATION    = 97.4114
RA_OF_ASC_NODE = 97.0348
ARG_OF_PERICENTER = 151.9555
MEAN_ANOMALY   = 208.2219

EPHEMERIS_TYPE = 0
CLASSIFICATION_TYPE = U
NORAD_CAT_ID   = 67296
ELEMENT_SET_NO = 999
REV_AT_EPOCH   = 340
BSTAR          = .61039669E-3
MEAN_MOTION_DOT = .1379E-3
MEAN_MOTION_DDOT = 0

CCSDS_OMM_VERS = 2.0
CREATION_DATE  = 
ORIGINATOR     = 

OBJECT_NAME    = SITRO-AIS-61
OBJECT_ID      = 2025-313BB
CENTER_NAME    = EARTH
REF_FRAME      = TEME
TIME_SYSTEM    = UTC
MEAN_ELEMENT_THEORY = SGP/SGP4

EPOCH          = 2026-01-19T21:43:31.821888
MEAN_MOTION    = 15.21791916
ECCENTRICITY   = .00096148
INCLINATION    = 97.4116
RA_OF_ASC_NODE = 97.0359
ARG_OF_PERICENTER = 153.8475
MEAN_ANOMALY   = 206.3248

EPHEMERIS_TYPE = 0
CLASSIFICATION_TYPE = U
NORAD_CAT_ID   = 67297
ELEMENT_SET_NO = 999
REV_AT_EPOCH   = 340
BSTAR          = .60590288E-3
MEAN_MOTION_DOT = .13711E-3
MEAN_MOTION_DDOT = 0

CCSDS_OMM_VERS = 2.0
CREATION_DATE  = 
ORIGINATOR     = 

OBJECT_NAME    = TIANHUI 7
OBJECT_ID      = 2025-314A
CENTER_NAME    = EARTH
REF_FRAME      = TEME
TIME_SYSTEM    = UTC
MEAN_ELEMENT_THEORY = SGP/SGP4

EPOCH          = 2026-01-18T16:49:18.960960
MEAN_MOTION    = 15.25523919
ECCENTRICITY   = .00016604
INCLINATION    = 97.4190
RA_OF_ASC_NODE = 95.7558
ARG_OF_PERICENTER = 100.2153
MEAN_ANOMALY   = 259.9272

EPHEMERIS_TYPE = 0
CLASSIFICATION_TYPE = U
NORAD_CAT_ID   = 67300
ELEMENT_SET_NO = 999
REV_AT_EPOCH   = 299
BSTAR          = .24250648E-3
MEAN_MOTION_DOT = .6075E-4
MEAN_MOTION_DDOT = 0

CCSDS_OMM_VERS = 2.0
CREATION_DATE  = 
ORIGINATOR     = 

OBJECT_NAME    = CZ-4B R/B
OBJECT_ID      = 2025-314B
CENTER_NAME    = EARTH
REF_FRAME      = TEME
TIME_SYSTEM    = UTC
MEAN_ELEMENT_THEORY = SGP/SGP4

EPOCH          = 2026-01-19T18:21:43.560000
MEAN_MOTION    = 15.70390543
ECCENTRICITY   = .01360535
INCLINATION    = 97.3728
RA_OF_ASC_NODE = 98.0312
ARG_OF_PERICENTER = 301.0982
MEAN_ANOMALY   = 57.6988

EPHEMERIS_TYPE = 0
CLASSIFICATION_TYPE = U
NORAD_CAT_ID   = 67301
ELEMENT_SET_NO = 999
REV_AT_EPOCH   = 319
BSTAR          = .48855314E-3
MEAN_MOTION_DOT = .102873E-2
MEAN_MOTION_DDOT = .5291014E-5

CCSDS_OMM_VERS = 2.0
CREATION_DATE  = 
ORIGINATOR     = 

OBJECT_NAME    = SHIJIAN-29A (SJ-29A)
OBJECT_ID      = 2025-315A
CENTER_NAME    = EARTH
REF_FRAME      = TEME
TIME_SYSTEM    = UTC
MEAN_ELEMENT_THEORY = SGP/SGP4

EPOCH          = 2026-01-19T22:50:57.737760
MEAN_MOTION    = 1.00271312
ECCENTRICITY   = .00015072
INCLINATION    = 3.0216
RA_OF_ASC_NODE = 99.0516
ARG_OF_PERICENTER = 303.5200
MEAN_ANOMALY   = 132.5299

EPHEMERIS_TYPE = 0
CLASSIFICATION_TYPE = U
NORAD_CAT_ID   = 67302
ELEMENT_SET_NO = 999
REV_AT_EPOCH   = 13
BSTAR          = 0
MEAN_MOTION_DOT = -.54E-6
MEAN_MOTION_DDOT = 0

CCSDS_OMM_VERS = 2.0
CREATION_DATE  = 
ORIGINATOR     = 

OBJECT_NAME    = CZ-7A R/B
OBJECT_ID      = 2025-315B
CENTER_NAME    = EARTH
REF_FRAME      = TEME
TIME_SYSTEM    = UTC
MEAN_ELEMENT_THEORY = SGP/SGP4

EPOCH          = 2026-01-19T12:45:32.295456
MEAN_MOTION    = 2.44437975
ECCENTRICITY   = .71871825
INCLINATION    = 19.5776
RA_OF_ASC_NODE = 92.3370
ARG_OF_PERICENTER = 194.0157
MEAN_ANOMALY   = 123.3195

EPHEMERIS_TYPE = 0
CLASSIFICATION_TYPE = U
NORAD_CAT_ID   = 67303
ELEMENT_SET_NO = 999
REV_AT_EPOCH   = 48
BSTAR          = .2701938E-2
MEAN_MOTION_DOT = .95174E-3
MEAN_MOTION_DDOT = .939266E-6

